ONEWEB-0620             
1 55161U 23004X   24276.40398947  .00000600  00000+0  16584-2 0  9993
2 55161  87.8940 145.1515 0001812  62.0993 298.0318 13.11415961 84206
ONEWEB-0621             
1 55162U 23004Y   24276.35479535 -.00000331  00000+0 -97035-3 0  9995
2 55162  87.8935 145.1270 0001307  78.6285 281.4989 13.11417733 84170
ONEWEB-0622             
1 55163U 23004Z   24276.35988010 -.00000374  00000+0 -10902-2 0  9993
2 55163  87.8942 145.1432 0001627  44.8809 315.2450 13.11419056 84169
ONEWEB-0623             
1 55164U 23004AA  24276.34157041  .00000104  00000+0  23385-3 0  9994
2 55164  87.9111 129.9656 0001057  51.9828 308.1399 13.17649872 85569
ONEWEB-0624             
1 55165U 23004AB  24276.10844442 -.00000112  00000+0 -34685-3 0  9993
2 55165  87.8857 114.7498 0001497  81.1986 278.9312 13.12442166 86326
ONEWEB-0625             
1 55166U 23004AC  24276.33146366  .00000245  00000+0  59850-3 0  9995
2 55166  87.9106 129.9670 0001656  88.0145 272.1177 13.17650674 85554
ONEWEB-0626             
1 55167U 23004AD  24276.32131478  .00000175  00000+0  41630-3 0  9992
2 55167  87.9107 129.9687 0002148  75.3244 284.8126 13.17647654 85558
ONEWEB-0627             
1 55168U 23004AE  24276.30953297  .00000236  00000+0  57435-3 0  9990
2 55168  87.9105 129.9726 0001399  57.8069 302.3198 13.17651214 85550
